NORAD_CAT_ID,OBJECT_NAME,OBJECT_TYPE,EPOCH,MEAN_MOTION,ECCENTRICITY,INCLINATION,RA_OF_ASC_NODE,ARG_OF_PERICENTER,MEAN_ANOMALY,BSTAR,MEAN_MOTION_DOT,MEAN_MOTION_DDOT,TLE_LINE0,TLE_LINE1,TLE_LINE2,SEMIMAJOR_AXIS,PERIOD,APOGEE,PERIGEE,DECAYED
53287.0,STARLINK-4107,PAYLOAD,2022-08-28 14:00:01,15.73213625,0.0002937,53.2154,229.8568,14.1053,230.015,2.1842e-05,2.446e-05,0.0,0 STARLINK-4107,1 53287U 22086AX  22240.58334491  .00002446  00000-0  21842-4 0  9997,2 53287  53.2154 229.8568 0002937  14.1053 230.0150 15.73213625  1302,6727.856,91.532,351.69699999999995,347.745,0.0
53287.0,STARLINK-4107,PAYLOAD,2022-08-28 22:00:00,15.73234446,0.0002751,53.2158,228.2056,18.391,314.6695,-0.0002793999999999,-0.00039715,0.0,0 STARLINK-4107,1 53287U 22086AX  22240.91667824 -.00039715  00000-0 -27940-3 0  9998,2 53287  53.2158 228.2056 0002751  18.3910 314.6695 15.73234446  1300,6727.797,91.531,351.51300000000015,347.811,0.0
53287.0,STARLINK-4107,PAYLOAD,2022-08-29 14:00:01,15.73170635,0.0002978,53.2161,224.9081,17.0871,133.8255,-0.00013232,-0.00019132,0.0,0 STARLINK-4107,1 53287U 22086AX  22241.58334491 -.00019132  00000-0 -13232-3 0  9993,2 53287  53.2161 224.9081 0002978  17.0871 133.8255 15.73170635  1300,6727.979,91.535,351.847,347.84,0.0
53287.0,STARLINK-4107,PAYLOAD,2022-08-29 22:00:00,15.73159695,0.0002791,53.2163,223.2573,20.1102,219.6891,0.00047449,0.00066392,0.0,0 STARLINK-4107,1 53287U 22086AX  22241.91667824  .00066392  00000-0  47449-3 0  9994,2 53287  53.2163 223.2573 0002791  20.1102 219.6891 15.73159695  1307,6728.01,91.536,351.75300000000016,347.997,0.0
53287.0,STARLINK-4107,PAYLOAD,2022-08-30 06:00:00,15.73189617,0.0003046,53.216,221.61,19.832,308.8679,0.00013709,0.00018655,0.0,0 STARLINK-4107,1 53287U 22086AX  22242.25001157  .00018655  00000-0  13709-3 0  9994,2 53287  53.2160 221.6100 0003046  19.8320 308.8679 15.73189617  6401,6727.925,91.534,351.839,347.74,0.0
53287.0,STARLINK-4107,PAYLOAD,2022-08-30 14:00:01,15.73253412,0.0002916,53.2157,219.9598,17.5233,40.105,-0.00070784,-0.00099054,0.0,0 STARLINK-4107,1 53287U 22086AX  22242.58334491 -.00099054  00000-0 -70784-3 0  9990,2 53287  53.2157 219.9598 0002916  17.5233  40.1050 15.73253412  1309,6727.743,91.53,351.57,347.646,0.0
53287.0,STARLINK-4107,PAYLOAD,2022-08-30 22:00:00,15.73174411,0.0002668,53.2161,218.3089,18.5701,128.005,0.00043748,0.00061164,0.0,0 STARLINK-4107,1 53287U 22086AX  22242.91667824  .00061164  00000-0  43748-3 0  9995,2 53287  53.2161 218.3089 0002668  18.5701 128.0050 15.73174411  1304,6727.968000000003,91.535,351.62800000000016,348.038,0.0
53287.0,STARLINK-4107,PAYLOAD,2022-08-31 12:00:00,15.73199949,0.0002907999999999,53.2161,215.4241,13.476,198.7412,-8.790700000000001e-05,-0.00012944,0.0,0 STARLINK-4107,1 53287U 22086AX  22243.50001157 -.00012944  00000-0 -87907-4 0  9992,2 53287  53.2161 215.4241 0002908  13.4760 198.7412 15.73199949  6605,6727.895,91.533,351.717,347.80400000000014,0.0
53287.0,STARLINK-4107,PAYLOAD,2022-08-31 14:00:01,15.73190359,0.0002832,53.2163,215.0112,13.8909,310.5578,1.8172e-06,-3.68e-06,0.0,0 STARLINK-4107,1 53287U 22086AX  22243.58334491 -.00000368  00000-0  18172-5 0  9995,2 53287  53.2163 215.0112 0002832  13.8909 310.5578 15.73190359  1300,6727.9230000000025,91.534,351.6930000000001,347.88199999999995,0.0
53287.0,STARLINK-4107,PAYLOAD,2022-08-31 22:00:00,15.73222371,0.0002751999999999,53.2164,213.3607,18.3361,35.0203,-0.00031335,-0.00044418,0.0,0 STARLINK-4107,1 53287U 22086AX  22243.91667824 -.00044418  00000-0 -31335-3 0  9990,2 53287  53.2164 213.3607 0002752  18.3361  35.0203 15.73222371  1308,6727.831,91.532,351.548,347.845,0.0
53287.0,STARLINK-4107,PAYLOAD,2022-09-01 14:00:01,15.73207074,0.0002906,53.2156,210.0629,22.0127,209.2493,-2.7125e-05,-4.429999999999999e-05,0.0,0 STARLINK-4107,1 53287U 22086AX  22244.58335648 -.00004430  00000-0 -27125-4 0  9993,2 53287  53.2156 210.0629 0002906  22.0127 209.2493 15.73207074  6775,6727.875,91.533,351.695,347.785,0.0
53287.0,STARLINK-4107,PAYLOAD,2022-09-01 22:00:00,15.73216146,0.0002736,53.2159,208.4125,24.8436,295.2841,0.00037829,0.00052848,0.0,0 STARLINK-4107,1 53287U 22086AX  22244.91667824  .00052848  00000-0  37829-3 0  9999,2 53287  53.2159 208.4125 0002736  24.8436 295.2841 15.73216146  1300,6727.849,91.532,351.555,347.87300000000016,0.0
53287.0,STARLINK-4107,PAYLOAD,2022-09-02 06:00:00,15.73267083,0.0002939,53.216,206.7652,20.6253,28.4648,-0.00055291,-0.00077749,0.0,0 STARLINK-4107,1 53287U 22086AX  22245.25001157 -.00077749  00000-0 -55291-3 0  9990,2 53287  53.2160 206.7652 0002939  20.6253  28.4648 15.73267083  6889,6727.704000000002,91.529,351.546,347.592,0.0
53287.0,STARLINK-4107,PAYLOAD,2022-09-02 14:00:01,15.73203936,0.0002743,53.2159,205.1143,14.3055,123.7703,-0.00059255,-0.00082999,0.0,0 STARLINK-4107,1 53287U 22086AX  22245.58334491 -.00082999  00000-0 -59255-3 0  9993,2 53287  53.2159 205.1143 0002743  14.3055 123.7703 15.73203936  1308,6727.884,91.533,351.594,347.903,0.0
53287.0,STARLINK-4107,PAYLOAD,2022-09-02 22:00:01,15.73162216,0.00026,53.2159,203.4642,16.6655,210.3657,0.00027143,0.00037585,0.0,0 STARLINK-4107,1 53287U 22086AX  22245.91668981  .00037585  00000-0  27143-3 0  9994,2 53287  53.2159 203.4642 0002600  16.6655 210.3657 15.73162216  1302,6728.003000000002,91.535,351.617,348.119,0.0
53287.0,STARLINK-4107,PAYLOAD,2022-09-03 06:00:00,15.73168156,0.0002893,53.2154,201.8169,16.8959,298.9715,0.00038999,0.000544,0.0,0 STARLINK-4107,1 53287U 22086AX  22246.25001157  .00054400  00000-0  38999-3 0  9994,2 53287  53.2154 201.8169 0002893  16.8959 298.9715 15.73168156  7038,6727.986,91.535,351.797,347.905,0.0
53287.0,STARLINK-4107,PAYLOAD,2022-09-03 14:00:01,15.73226779,0.0002661999999999,53.215,200.1659,16.9534,27.8404,0.00016342,0.00022403,0.0,0 STARLINK-4107,1 53287U 22086AX  22246.58334491  .00022403  00000-0  16342-3 0  9996,2 53287  53.2150 200.1659 0002662  16.9534  27.8404 15.73226779  1308,6727.819,91.532,351.475,347.89300000000014,0.0
53287.0,STARLINK-4107,PAYLOAD,2022-09-03 22:00:00,15.7328536,0.0002523,53.2152,198.5159,19.2073,114.5462,-0.00026657,-0.00038008,0.0,0 STARLINK-4107,1 53287U 22086AX  22246.91667824 -.00038008  00000-0 -26657-3 0  9992,2 53287  53.2152 198.5159 0002523  19.2073 114.5462 15.73285360  1304,6727.651999999999,91.528,351.214,347.819,0.0
53287.0,STARLINK-4107,PAYLOAD,2022-09-04 12:00:00,15.73291362,0.0002696,53.2151,195.63,15.994000000000002,183.5409,-0.00089568,-0.00124992,0.0,0 STARLINK-4107,1 53287U 22086AX  22247.50001157 -.00124992  00000-0 -89568-3 0  9997,2 53287  53.2151 195.6300 0002696  15.9940 183.5409 15.73291362  7230,6727.635,91.528,351.31300000000016,347.686,0.0
53287.0,STARLINK-4107,PAYLOAD,2022-09-04 14:00:01,15.73258728,0.0002608,53.2153,195.2169,17.4773,294.3853,-0.00051739,-0.00072805,0.0,0 STARLINK-4107,1 53287U 22086AX  22247.58335648 -.00072805  00000-0 -51739-3 0  9994,2 53287  53.2153 195.2169 0002608  17.4773 294.3853 15.73258728  1300,6727.728,91.53,351.347,347.838,0.0
53287.0,STARLINK-4107,PAYLOAD,2022-09-04 16:00:00,15.73219095,0.0002541,53.2153,194.8041,17.6367,46.4163,-4.2267e-05,-6.555e-05,0.0,0 STARLINK-4107,1 53287U 22086AX  22247.66667824 -.00006555  00000-0 -42267-4 0  9993,2 53287  53.2153 194.8041 0002541  17.6367  46.4163 15.73219095  7266,6727.840999999999,91.532,351.415,347.996,0.0
53287.0,STARLINK-4107,PAYLOAD,2022-09-04 20:00:01,15.73221203,0.0002525999999999,53.2152,193.979,20.3847,268.143,-0.00017476,-0.00025101,0.0,0 STARLINK-4107,1 53287U 22086AX  22247.83334491 -.00025101  00000-0 -17476-3 0  9994,2 53287  53.2152 193.9790 0002526  20.3847 268.1430 15.73221203  1306,6727.835,91.532,351.399,348.0,0.0
53287.0,STARLINK-4107,PAYLOAD,2022-09-05 14:00:01,15.73221126,0.0002496,53.2146,190.2681,17.0541,201.6163,-0.00047466,-0.00066782,0.0,0 STARLINK-4107,1 53287U 22086AX  22248.58334491 -.00066782  00000-0 -47466-3 0  9999,2 53287  53.2146 190.2681 0002496  17.0541 201.6163 15.73221126  1307,6727.835,91.532,351.379,348.021,0.0
53287.0,STARLINK-4107,PAYLOAD,2022-09-05 20:00:01,15.73192733,0.0002346999999999,53.2147,189.0304,17.5693,177.8004,-0.00047577,-0.00066853,0.0,0 STARLINK-4107,1 53287U 22086AX  22248.83334491 -.00066853  00000-0 -47577-3 0  9999,2 53287  53.2147 189.0304 0002347  17.5693 177.8004 15.73192733  7444,6727.916,91.534,351.36,348.202,0.0
53287.0,STARLINK-4107,PAYLOAD,2022-09-05 22:00:00,15.73186312,0.0002375,53.2148,188.6185,16.8303,290.7656,-0.00053525,-0.00075041,0.0,0 STARLINK-4107,1 53287U 22086AX  22248.91667824 -.00075041  00000-0 -53525-3 0  9996,2 53287  53.2148 188.6185 0002375  16.8303 290.7656 15.73186312  1301,6727.934,91.534,351.397,348.201,0.0
53287.0,STARLINK-4107,PAYLOAD,2022-09-06 12:00:00,15.73113958,0.000249,53.2151,185.7326,13.0621,0.0283,0.00021254,0.00029205,0.0,0 STARLINK-4107,1 53287U 22086AX  22249.50001157  .00029205  00000-0  21254-3 0  9996,2 53287  53.2151 185.7326 0002490  13.0621   0.0283 15.73113958  7546,6728.14,91.538,351.681,348.33,0.0
53287.0,STARLINK-4107,PAYLOAD,2022-09-06 14:00:01,15.73101884,0.0002424999999999,53.2153,185.3198,13.0567,112.24,0.00043293,0.00060325,0.0,0 STARLINK-4107,1 53287U 22086AX  22249.58334491  .00060325  00000-0  43293-3 0  9999,2 53287  53.2153 185.3198 0002425  13.0567 112.2400 15.73101884  1308,6728.175,91.539,351.672,348.408,0.0
53287.0,STARLINK-4107,PAYLOAD,2022-09-06 22:00:00,15.73162905,0.0002408,53.2154,183.6707,16.7062,197.4202,0.00027269,0.00037764,0.0,0 STARLINK-4107,1 53287U 22086AX  22249.91667824  .00037764  00000-0  27269-3 0  9991,2 53287  53.2154 183.6707 0002408  16.7062 197.4202 15.73162905  1303,6728.001,91.535,351.486,348.246,0.0
53287.0,STARLINK-4107,PAYLOAD,2022-09-07 14:00:01,15.73202426,0.0002371,53.215,180.3715,17.7796,14.1506,0.00046957,0.0006581,0.0,0 STARLINK-4107,1 53287U 22086AX  22250.58334491  .00065810  00000-0  46957-3 0  9995,2 53287  53.2150 180.3715 0002371  17.7796  14.1506 15.73202426  7723,6727.888000000001,91.533,351.348,348.158,0.0
